[{"OBJECT_NAME":"NETSAT-1","OBJECT_ID":"2020-068W","EPOCH":"2026-03-09T22:42:38.711232","MEAN_MOTION":15.32042482,"ECCENTRICITY":0.00057337,"INCLINATION":97.8751,"RA_OF_ASC_NODE":63.2583,"ARG_OF_PERICENTER":18.5877,"MEAN_ANOMALY":341.5572,"EPHEMERIS_TYPE":0,"CLASSIFICATION_TYPE":"U","NORAD_CAT_ID":46506,"ELEMENT_SET_NO":999,"REV_AT_EPOCH":30009,"BSTAR":0.00059222329,"MEAN_MOTION_DOT":0.00018269,"MEAN_MOTION_DDOT":0},{"OBJECT_NAME":"STARLINK-35584","OBJECT_ID":"2025-236W","EPOCH":"2026-03-09T19:36:07.409952","MEAN_MOTION":15.30212537,"ECCENTRICITY":0.00017806,"INCLINATION":53.1596,"RA_OF_ASC_NODE":103.3082,"ARG_OF_PERICENTER":85.4186,"MEAN_ANOMALY":274.7018,"EPHEMERIS_TYPE":0,"CLASSIFICATION_TYPE":"U","NORAD_CAT_ID":66106,"ELEMENT_SET_NO":999,"REV_AT_EPOCH":2296,"BSTAR":0.00066765065,"MEAN_MOTION_DOT":0.00019474,"MEAN_MOTION_DDOT":0}]
